{"type": "FeatureCollection", "features": [ {"type": "Feature", "properties": {"norad_id": 41785, "name": "ALSAT 1B", "group": "resource", "lat": -61.52302921478388, "lon": 174.5727961734573, "alt_km": 669.0670082165361, "timestamp": "2025-12-23T20:42:36.729945+00:00", "meta": {"OBJECT_NAME": "ALSAT 1B", "OBJECT_ID": "2016-059C", "EPOCH": "2025-12-23T08:11:36.153024", "MEAN_MOTION": 14.72086138, "ECCENTRICITY": 0.00107759, "INCLINATION": 97.7804, "RA_OF_ASC_NODE": 8.6732, "ARG_OF_PERICENTER": 73.6389, "MEAN_ANOMALY": 286.6003, "EPHEMERIS_TYPE": 0, "CLASSIFICATION_TYPE": "U", "NORAD_CAT_ID": 41785, "ELEMENT_SET_NO": 999, "REV_AT_EPOCH": 49470, "BSTAR": 9.3034048e-05, "MEAN_MOTION_DOT": 5.38e-06, "MEAN_MOTION_DDOT": 0}, "tle": {"line1": "1 41785U 16059C   25357.34139066  .00000538  00000+0  93034-4 0  9998", "line2": "2 41785  97.7804   8.6732 0010775  73.6389 286.6003 14.72086138494703"}}, "geometry": {"type": "Point", "coordinates": [174.5727961734573, -61.52302921478388]}}, {"type": "Feature", "properties": {"norad_id": 41787, "name": "PATHFINDER 1", "group": "resource", "lat": 47.88746583710491, "lon": -171.14221256724807, "alt_km": 663.1489391494179, "timestamp": "2025-12-23T20:42:36.729955+00:00", "meta": {"OBJECT_NAME": "PATHFINDER 1", "OBJECT_ID": "2016-059E", "EPOCH": "2025-12-23T05:23:11.414688", "MEAN_MOTION": 14.6733864, "ECCENTRICITY": 0.00297065, "INCLINATION": 97.8137, "RA_OF_ASC_NODE": 359.5115, "ARG_OF_PERICENTER": 49.2406, "MEAN_ANOMALY": 311.1371, "EPHEMERIS_TYPE": 0, "CLASSIFICATION_TYPE": "U", "NORAD_CAT_ID": 41787, "ELEMENT_SET_NO": 999, "REV_AT_EPOCH": 49390, "BSTAR": 0.00013866817, "MEAN_MOTION_DOT": 7.41e-06, "MEAN_MOTION_DDOT": 0}, "tle": {"line1": "1 41787U 16059E   25357.22443767  .00000741  00000+0  13867-3 0  9994", "line2": "2 41787  97.8137 359.5115 0029706  49.2406 311.1371 14.67338640493906"}}, "geometry": {"type": "Point", "coordinates": [-171.14221256724807, 47.88746583710491]}}, {"type": "Feature", "properties": {"norad_id": 41790, "name": "SCATSAT 1", "group": "resource", "lat": -48.676885754755155, "lon": -134.70296198247877, "alt_km": 667.9916794354722, "timestamp": "2025-12-23T20:42:36.729965+00:00", "meta": {"OBJECT_NAME": "SCATSAT 1", "OBJECT_ID": "2016-059H", "EPOCH": "2025-12-23T03:26:39.466176", "MEAN_MOTION": 14.78968555, "ECCENTRICITY": 0.00564819, "INCLINATION": 98.1447, "RA_OF_ASC_NODE": 53.9431, "ARG_OF_PERICENTER": 95.2221, "MEAN_ANOMALY": 265.5439, "EPHEMERIS_TYPE": 0, "CLASSIFICATION_TYPE": "U", "NORAD_CAT_ID": 41790, "ELEMENT_SET_NO": 999, "REV_AT_EPOCH": 7556, "BSTAR": 0.00018480331, "MEAN_MOTION_DOT": 1.344e-05, "MEAN_MOTION_DDOT": 0}, "tle": {"line1": "1 41790U 16059H   25357.14351234  .00001344  00000+0  18480-3 0  9992", "line2": "2 41790  98.1447  53.9431 0056481  95.2221 265.5439 14.78968555 75561"}}, "geometry": {"type": "Point", "coordinates": [-134.70296198247877, -48.676885754755155]}}, {"type": "Feature", "properties": {"norad_id": 41875, "name": "GOKTURK 1A", "group": "resource", "lat": 26.449357445196302, "lon": -114.00507621877905, "alt_km": 682.6671886004751, "timestamp": "2025-12-23T20:42:36.729975+00:00", "meta": {"OBJECT_NAME": "GOKTURK 1A", "OBJECT_ID": "2016-073A", "EPOCH": "2025-12-23T07:27:17.803008", "MEAN_MOTION": 14.62791376, "ECCENTRICITY": 0.00012739, "INCLINATION": 98.1431, "RA_OF_ASC_NODE": 249.5348, "ARG_OF_PERICENTER": 81.1454, "MEAN_ANOMALY": 278.9892, "EPHEMERIS_TYPE": 0, "CLASSIFICATION_TYPE": "U", "NORAD_CAT_ID": 41875, "ELEMENT_SET_NO": 999, "REV_AT_EPOCH": 48311, "BSTAR": 0.00013601981, "MEAN_MOTION_DOT": 6.47e-06, "MEAN_MOTION_DDOT": 0}, "tle": {"line1": "1 41875U 16073A   25357.31062272  .00000647  00000+0  13602-3 0  9998", "line2": "2 41875  98.1431 249.5348 0001273  81.1454 278.9892 14.62791376483112"}}, "geometry": {"type": "Point", "coordinates": [-114.00507621877905, 26.449357445196302]}}, {"type": "Feature", "properties": {"norad_id": 41877, "name": "RESOURCESAT-2A", "group": "resource", "lat": -48.72987125967751, "lon": -122.48261157269073, "alt_km": 825.7286048958576, "timestamp": "2025-12-23T20:42:36.729985+00:00", "meta": {"OBJECT_NAME": "RESOURCESAT-2A", "OBJECT_ID": "2016-074A", "EPOCH": "2025-12-23T07:48:35.807616", "MEAN_MOTION": 14.21604687, "ECCENTRICITY": 0.00015448, "INCLINATION": 98.7746, "RA_OF_ASC_NODE": 67.1197, "ARG_OF_PERICENTER": 206.8878, "MEAN_ANOMALY": 153.2219, "EPHEMERIS_TYPE": 0, "CLASSIFICATION_TYPE": "U", "NORAD_CAT_ID": 41877, "ELEMENT_SET_NO": 999, "REV_AT_EPOCH": 46931, "BSTAR": 0.00020959666, "MEAN_MOTION_DOT": 4.15e-06, "MEAN_MOTION_DDOT": 0}, "tle": {"line1": "1 41877U 16074A   25357.32541444  .00000415  00000+0  20960-3 0  9993", "line2": "2 41877  98.7746  67.1197 0001544 206.8878 153.2219 14.21604687469319"}}, "geometry": {"type": "Point", "coordinates": [-122.48261157269073, -48.72987125967751]}}, {"type": "Feature", "properties": {"norad_id": 41948, "name": "CARTOSAT-2D", "group": "resource", "lat": -0.848682500452763, "lon": -124.91988175813918, "alt_km": 509.70064565346365, "timestamp": "2025-12-23T20:42:36.729995+00:00", "meta": {"OBJECT_NAME": "CARTOSAT-2D", "OBJECT_ID": "2017-008A", "EPOCH": "2025-12-23T07:16:15.786336", "MEAN_MOTION": 15.1916889, "ECCENTRICITY": 0.00052346, "INCLINATION": 97.4375, "RA_OF_ASC_NODE": 54.6397, "ARG_OF_PERICENTER": 122.9864, "MEAN_ANOMALY": 237.1875, "EPHEMERIS_TYPE": 0, "CLASSIFICATION_TYPE": "U", "NORAD_CAT_ID": 41948, "ELEMENT_SET_NO": 999, "REV_AT_EPOCH": 49087, "BSTAR": 0.00039017343, "MEAN_MOTION_DOT": 8.142e-05, "MEAN_MOTION_DDOT": 0}, "tle": {"line1": "1 41948U 17008A   25357.30296049  .00008142  00000+0  39017-3 0  9994", "line2": "2 41948  97.4375  54.6397 0005234 122.9864 237.1875 15.19168890490872"}}, "geometry": {"type": "Point", "coordinates": [-124.91988175813918, -0.848682500452763]}}, {"type": "Feature", "properties": {"norad_id": 42063, "name": "SENTINEL-2B", "group": "resource", "lat": -26.06897933274615, "lon": -114.07848413017125, "alt_km": 795.0058177887458, "timestamp": "2025-12-23T20:42:36.730006+00:00", "meta": {"OBJECT_NAME": "SENTINEL-2B", "OBJECT_ID": "2017-013A", "EPOCH": "2025-12-23T06:19:21.400896", "MEAN_MOTION": 14.30814422, "ECCENTRICITY": 0.0001188, "INCLINATION": 98.5707, "RA_OF_ASC_NODE": 69.5617, "ARG_OF_PERICENTER": 92.5254, "MEAN_ANOMALY": 267.6065, "EPHEMERIS_TYPE": 0, "CLASSIFICATION_TYPE": "U", "NORAD_CAT_ID": 42063, "ELEMENT_SET_NO": 999, "REV_AT_EPOCH": 45948, "BSTAR": 4.6549822e-05, "MEAN_MOTION_DOT": 7.8e-07, "MEAN_MOTION_DDOT": 0}, "tle": {"line1": "1 42063U 17013A   25357.26344214  .00000078  00000+0  46550-4 0  9993", "line2": "2 42063  98.5707  69.5617 0001188  92.5254 267.6065 14.30814422459483"}}, "geometry": {"type": "Point", "coordinates": [-114.07848413017125, -26.06897933274615]}}, {"type": "Feature", "properties": {"norad_id": 42767, "name": "CARTOSAT-2E", "group": "resource", "lat": 82.54100210870526, "lon": -35.26168703080174, "alt_km": 500.75422099084426, "timestamp": "2025-12-23T20:42:36.730016+00:00", "meta": {"OBJECT_NAME": "CARTOSAT-2E", "OBJECT_ID": "2017-036C", "EPOCH": "2025-12-23T07:40:10.600896", "MEAN_MOTION": 15.19296075, "ECCENTRICITY": 0.00028143, "INCLINATION": 97.4535, "RA_OF_ASC_NODE": 54.768, "ARG_OF_PERICENTER": 190.0279, "MEAN_ANOMALY": 170.09, "EPHEMERIS_TYPE": 0, "CLASSIFICATION_TYPE": "U", "NORAD_CAT_ID": 42767, "ELEMENT_SET_NO": 999, "REV_AT_EPOCH": 47144, "BSTAR": 0.0002158548, "MEAN_MOTION_DOT": 4.487e-05, "MEAN_MOTION_DDOT": 0}, "tle": {"line1": "1 42767U 17036C   25357.31956714  .00004487  00000+0  21585-3 0  9997", "line2": "2 42767  97.4535  54.7680 0002814 190.0279 170.0900 15.19296075471446"}}, "geometry": {"type": "Point", "coordinates": [-35.26168703080174, 82.54100210870526]}}, {"type": "Feature", "properties": {"norad_id": 42920, "name": "FORMOSAT-5", "group": "resource", "lat": -69.38034208762348, "lon": 94.62111967273412, "alt_km": 724.0992436772967, "timestamp": "2025-12-23T20:42:36.730027+00:00", "meta": {"OBJECT_NAME": "FORMOSAT-5", "OBJECT_ID": "2017-049A", "EPOCH": "2025-12-23T04:29:03.045120", "MEAN_MOTION": 14.50766332, "ECCENTRICITY": 0.00098239, "INCLINATION": 98.244, "RA_OF_ASC_NODE": 71.2956, "ARG_OF_PERICENTER": 265.8101, "MEAN_ANOMALY": 94.1972, "EPHEMERIS_TYPE": 0, "CLASSIFICATION_TYPE": "U", "NORAD_CAT_ID": 42920, "ELEMENT_SET_NO": 999, "REV_AT_EPOCH": 44115, "BSTAR": 6.6072881e-05, "MEAN_MOTION_DOT": 2.16e-06, "MEAN_MOTION_DDOT": 0}, "tle": {"line1": "1 42920U 17049A   25357.18684080  .00000216  00000+0  66073-4 0  9999", "line2": "2 42920  98.2440  71.2956 0009823 265.8101  94.1972 14.50766332441155"}}, "geometry": {"type": "Point", "coordinates": [94.62111967273412, -69.38034208762348]}}, {"type": "Feature", "properties": {"norad_id": 42969, "name": "SENTINEL-5P", "group": "resource", "lat": 27.254659942331433, "lon": 120.91535514109957, "alt_km": 825.4974229379177, "timestamp": "2025-12-23T20:42:36.730038+00:00", "meta": {"OBJECT_NAME": "SENTINEL-5P", "OBJECT_ID": "2017-064A", "EPOCH": "2025-12-22T20:18:42.950880", "MEAN_MOTION": 14.19519853, "ECCENTRICITY": 0.00010225, "INCLINATION": 98.78, "RA_OF_ASC_NODE": 295.3414, "ARG_OF_PERICENTER": 91.3711, "MEAN_ANOMALY": 268.7582, "EPHEMERIS_TYPE": 0, "CLASSIFICATION_TYPE": "U", "NORAD_CAT_ID": 42969, "ELEMENT_SET_NO": 999, "REV_AT_EPOCH": 42454, "BSTAR": 5.1443237e-05, "MEAN_MOTION_DOT": 6.4e-07, "MEAN_MOTION_DDOT": 0}, "tle": {"line1": "1 42969U 17064A   25356.84633045  .00000064  00000+0  51443-4 0  9992", "line2": "2 42969  98.7800 295.3414 0001022  91.3711 268.7582 14.19519853424542"}}, "geometry": {"type": "Point", "coordinates": [120.91535514109957, 27.254659942331433]}}]}